STARLINK-37491          
1 69166U 26111U   26157.91670139  .00138131  00000+0  78947-3 0  9990
2 69166  53.1588 203.0498 0000720 101.5629  19.1310 15.77972776  3892
STARLINK-37474          
1 69167U 26111V   26157.91670139  .00181371  00000+0  10311-2 0  9995
2 69167  53.1589 203.0198 0001020 102.6343  32.5806 15.77953219  3890
STARLINK-37469          
1 69168U 26111W   26157.91670139 -.02576768  00000+0 -20596-1 0  9993
2 69168  53.1591 203.0017 0001121  72.4135  71.6691 15.73707190  3896
STARLINK-37515          
1 69169U 26111X   26157.91670139  .00144046  00000+0  82283-3 0  9993
2 69169  53.1592 203.0003 0001241  88.4620  56.0778 15.77965039  3897
STARLINK-37437          
1 69170U 26111Y   26157.69752450  .00149746  00000+0  74851-3 0  9991
2 69170  53.1586 204.0510 0000732  63.0627 297.0470 15.80891266  2604
STARLINK-37392          
1 69171U 26111Z   26157.91670139  .00163972  00000+0  93200-3 0  9996
2 69171  53.1589 202.9202 0000678  51.0167 132.1071 15.78011380  3894
STARLINK-37472          
1 69172U 26111AA  26157.91670139 -.02340939  00000+0 -13580-1 0  9992
2 69172  53.1588 202.8944 0001403  81.8437 113.4740 15.81031536  3898
STARLINK-37461          
1 69173U 26111AB  26157.91670139 -.02576948  00000+0 -19060-1 0  9993
2 69173  53.1590 202.9687 0001048  71.3128  88.2422 15.75473738  3896
STARLINK-37333          
1 69174U 26111AC  26157.91670139  .00125214  00000+0  71697-3 0  9992
2 69174  53.1584 202.9813 0000953 115.6687  38.0412 15.77976739  3890
STARLINK-37385          
1 69175U 26111AD  26157.91670139 -.02176570  00000+0 -14917-1 0  9998
2 69175  53.1590 202.9508 0001056  85.4933  82.6865 15.77159700  3890
STARLINK-37414          
1 69176U 26111AE  26157.91670139  .00138045  00000+0  78866-3 0  9995
2 69176  53.1590 202.9294 0001244 100.0197  78.5376 15.77982197  3893
STRIX-7                 
1 69177U 26112A   26157.72628656  .00004804  00000+0  38236-3 0  9995
2 69177  44.9065 247.3905 0024224 348.2422  11.7882 15.01379808  2303
SHENZHOU-23 (SZ-23)     
1 69180U 26113A   26157.67381585  .00028669  00000+0  34211-3 0  9995
2 69180  41.4692  25.9625 0009150 355.7318   4.3441 15.60361832291258
STARLINK-37380          
1 69182U 26114A   26157.91670139  .00022580  00000+0  13370-3 0  9990
2 69182  53.1585 253.7676 0000983 108.2950   7.8118 15.78027978  3165
STARLINK-37089          
1 69183U 26114B   26157.91670139  .00026166  00000+0  15432-3 0  9996
2 69183  53.1587 253.7564 0000820  86.8503  34.5702 15.78019763  3168
STARLINK-37428          
1 69184U 26114C   26157.91670139  .00053709  00000+0  31168-3 0  9994
2 69184  53.1586 253.7400 0000891  75.4838  53.9236 15.78022176  3169
STARLINK-37237          
1 69185U 26114D   26157.91670139 -.00127947  00000+0 -74130-3 0  9999
2 69185  53.1587 253.7073 0001279  83.2845  61.8143 15.78137744  3166
STARLINK-37365          
1 69186U 26114E   26157.91670139  .00023898  00000+0  14120-3 0  9991
2 69186  53.1586 253.7111 0001088  77.6776  65.5926 15.78038772  3168
STARLINK-37209          
1 69187U 26114F   26157.91670139 -.00002439  00000+0 -10207-4 0  9995
2 69187  53.1587 253.7024 0001128  81.8810  65.7810 15.78045964  3169
STARLINK-37359          
1 69188U 26114G   26157.91670139  .00063850  00000+0  36950-3 0  9990
2 69188  53.1586 253.6968 0000743  83.6005  66.5784 15.78013892  3167
STARLINK-37440          
1 69189U 26114H   26157.91670139 -.01619457  00000+0 -83259-2 0  9997
2 69189  53.1571 253.3124 0000781  73.4523 262.1510 15.83444936  3161
STARLINK-37282          
1 69190U 26114J   26157.91670139 -.00079909  00000+0 -40443-3 0  9999
2 69190  53.1585 253.6479 0001300  79.6685  94.1694 15.80905975  3167
STARLINK-37422          
1 69191U 26114K   26157.91670139 -.00062434  00000+0 -31484-3 0  9990
2 69191  53.1590 253.6279 0001128 130.8980  52.7572 15.80887908  3168
STARLINK-37424          
1 69192U 26114L   26157.91670139  .00046251  00000+0  23705-3 0  9995
2 69192  53.1588 253.6396 0000715  75.7841 102.3445 15.80832516  3166
STARLINK-36666          
1 69193U 26114M   26157.91670139 -.00055245  00000+0 -27796-3 0  9995
2 69193  53.1587 253.6307 0001364  79.2579 103.1302 15.80885923  3167
STARLINK-37355          
1 69194U 26114N   26157.91670139  .00033312  00000+0  17193-3 0  9995
2 69194  53.1589 253.6221 0001080  83.1938 103.4785 15.80839283  3169
STARLINK-37166          
1 69195U 26114P   26157.91670139  .00051837  00000+0  26509-3 0  9999
2 69195  53.1591 253.6036 0001144  63.4907 131.7244 15.80832107  3167
