OBJECT_NAME,OBJECT_ID,EPOCH,MEAN_MOTION,ECCENTRICITY,INCLINATION,RA_OF_ASC_NODE,ARG_OF_PERICENTER,MEAN_ANOMALY,EPHEMERIS_TYPE,CLASSIFICATION_TYPE,NORAD_CAT_ID,ELEMENT_SET_NO,REV_AT_EPOCH,BSTAR,MEAN_MOTION_DOT,MEAN_MOTION_DDOT
STARLINK-37491,2026-111U,2026-06-06T22:00:03.000096,15.77972776,.00007205,53.1588,203.0498,101.5629,19.1310,0,U,69166,999,389,.78947036E-3,.138131E-2,0
STARLINK-37474,2026-111V,2026-06-06T22:00:03.000096,15.77953219,.00010209,53.1589,203.0198,102.6343,32.5806,0,U,69167,999,389,.10310603E-2,.181371E-2,0
STARLINK-37469,2026-111W,2026-06-06T22:00:03.000096,15.73707190,.00011215,53.1591,203.0017,72.4135,71.6691,0,U,69168,999,389,-.20596332E-1,-.2576768E-1,0
STARLINK-37515,2026-111X,2026-06-06T22:00:03.000096,15.77965039,.00012416,53.1592,203.0003,88.4620,56.0778,0,U,69169,999,389,.82282973E-3,.144046E-2,0
STARLINK-37437,2026-111Y,2026-06-06T16:44:26.116800,15.80891266,.00007328,53.1586,204.0510,63.0627,297.0470,0,U,69170,999,260,.74850576E-3,.149746E-2,0
STARLINK-37392,2026-111Z,2026-06-06T22:00:03.000096,15.78011380,.00006788,53.1589,202.9202,51.0167,132.1071,0,U,69171,999,389,.93199764E-3,.163972E-2,0
STARLINK-37472,2026-111AA,2026-06-06T22:00:03.000096,15.81031536,.00014035,53.1588,202.8944,81.8437,113.4740,0,U,69172,999,389,-.13579747E-1,-.2340939E-1,0
STARLINK-37461,2026-111AB,2026-06-06T22:00:03.000096,15.75473738,.00010488,53.1590,202.9687,71.3128,88.2422,0,U,69173,999,389,-.19060458E-1,-.2576948E-1,0
STARLINK-37333,2026-111AC,2026-06-06T22:00:03.000096,15.77976739,.00009532,53.1584,202.9813,115.6687,38.0412,0,U,69174,999,389,.71696605E-3,.125214E-2,0
STARLINK-37385,2026-111AD,2026-06-06T22:00:03.000096,15.77159700,.00010565,53.1590,202.9508,85.4933,82.6865,0,U,69175,999,389,-.14917302E-1,-.217657E-1,0
STARLINK-37414,2026-111AE,2026-06-06T22:00:03.000096,15.77982197,.00012446,53.1590,202.9294,100.0197,78.5376,0,U,69176,999,389,.78865543E-3,.138045E-2,0
STRIX-7,2026-112A,2026-06-06T17:25:51.158784,15.01379808,.00242244,44.9065,247.3905,348.2422,11.7882,0,U,69177,999,230,.38236417E-3,.4804E-4,0
SHENZHOU-23 (SZ-23),2026-113A,2026-06-06T16:10:17.689440,15.60361832,.00091504,41.4692,25.9625,355.7318,4.3441,0,U,69180,999,29125,.3421058E-3,.28669E-3,0
STARLINK-37380,2026-114A,2026-06-06T22:00:03.000096,15.78027978,.00009832,53.1585,253.7676,108.2950,7.8118,0,U,69182,999,316,.13370345E-3,.2258E-3,0
STARLINK-37089,2026-114B,2026-06-06T22:00:03.000096,15.78019763,.00008205,53.1587,253.7564,86.8503,34.5702,0,U,69183,999,316,.15431987E-3,.26166E-3,0
STARLINK-37428,2026-114C,2026-06-06T22:00:03.000096,15.78022176,.00008913,53.1586,253.7400,75.4838,53.9236,0,U,69184,999,316,.31168094E-3,.53709E-3,0
STARLINK-37237,2026-114D,2026-06-06T22:00:03.000096,15.78137744,.00012798,53.1587,253.7073,83.2845,61.8143,0,U,69185,999,316,-.74130066E-3,-.127947E-2,0
STARLINK-37365,2026-114E,2026-06-06T22:00:03.000096,15.78038772,.00010881,53.1586,253.7111,77.6776,65.5926,0,U,69186,999,316,.14119855E-3,.23898E-3,0
STARLINK-37209,2026-114F,2026-06-06T22:00:03.000096,15.78045964,.00011286,53.1587,253.7024,81.8810,65.7810,0,U,69187,999,316,-.10206997E-4,-.2439E-4,0
STARLINK-37359,2026-114G,2026-06-06T22:00:03.000096,15.78013892,.00007439,53.1586,253.6968,83.6005,66.5784,0,U,69188,999,316,.36950417E-3,.6385E-3,0
STARLINK-37440,2026-114H,2026-06-06T22:00:03.000096,15.83444936,.00007818,53.1571,253.3124,73.4523,262.1510,0,U,69189,999,316,-.83259294E-2,-.1619457E-1,0
STARLINK-37282,2026-114J,2026-06-06T22:00:03.000096,15.80905975,.00013003,53.1585,253.6479,79.6685,94.1694,0,U,69190,999,316,-.40442829E-3,-.79909E-3,0
STARLINK-37422,2026-114K,2026-06-06T22:00:03.000096,15.80887908,.00011285,53.1590,253.6279,130.8980,52.7572,0,U,69191,999,316,-.31484158E-3,-.62434E-3,0
STARLINK-37424,2026-114L,2026-06-06T22:00:03.000096,15.80832516,.00007152,53.1588,253.6396,75.7841,102.3445,0,U,69192,999,316,.23705118E-3,.46251E-3,0
STARLINK-36666,2026-114M,2026-06-06T22:00:03.000096,15.80885923,.00013642,53.1587,253.6307,79.2579,103.1302,0,U,69193,999,316,-.27796487E-3,-.55245E-3,0
STARLINK-37355,2026-114N,2026-06-06T22:00:03.000096,15.80839283,.00010806,53.1589,253.6221,83.1938,103.4785,0,U,69194,999,316,.17192641E-3,.33312E-3,0
STARLINK-37166,2026-114P,2026-06-06T22:00:03.000096,15.80832107,.00011447,53.1591,253.6036,63.4907,131.7244,0,U,69195,999,316,.26509185E-3,.51837E-3,0
